     2.11           N: GPS NAV DATA                         RINEX VERSION / TYPE
Leica Infinity 4.0.0                    20230719 140741 UTC PGM / RUN BY / DATE 
    1.5832E-08  2.2352E-08 -1.1921E-07 -1.1921E-07          ION ALPHA           
    1.2083E+05  1.6384E+05 -1.3107E+05 -3.9322E+05          ION BETA            
     .000000000000E+00 -.355271367900E-14   405504     2270 DELTA-UTC: A0,A1,T,W
    18                                                      LEAP SECONDS        
                                                            END OF HEADER       
31 23  7 17 14  0  0.0 -.220218673348E-03 -.682121026330E-12  .000000000000E+00
     .140000000000E+02  .953125000000E+01  .490520424279E-08  .100005918151E+00
     .694766640663E-06  .103311733110E-01  .513717532158E-05  .515358222389E+04
     .136800000000E+06  .912696123123E-07 -.174384929953E+01  .160187482834E-06
     .953932177801E+00  .276843750000E+03  .552822225619E+00 -.826462986936E-08
     .278940204268E-09  .100000000000E+01  .227100000000E+04  .000000000000E+00
     .340000000000E+01  .000000000000E+00 -.135041773319E-07  .140000000000E+02
     .136800000000E+06  .000000000000E+00
19 23  7 17 14  0  0.0  .345112755895E-03  .511590769747E-11  .000000000000E+00
     .840000000000E+02  .123468750000E+03  .415731582493E-08 -.349775576002E+00
     .640563666821E-05  .950165523682E-02  .859797000885E-05  .515363736725E+04
     .136800000000E+06 -.353902578354E-07  .434353675660E+00 -.115483999252E-06
     .972932663145E+00  .220968750000E+03  .235811262157E+01 -.791497267727E-08
     .176078762681E-09  .100000000000E+01  .227100000000E+04  .000000000000E+00
     .340000000000E+01  .000000000000E+00 -.153668224812E-07  .840000000000E+02
     .136800000000E+06  .000000000000E+00
 9 23  7 17 14  0  0.0 -.109978485853E-03  .932232069317E-11  .000000000000E+00
     .860000000000E+02 -.523750000000E+02  .427374935441E-08 -.196271934069E+01
    -.279024243355E-05  .250428530853E-02  .106859952211E-04  .515358233833E+04
     .136800000000E+06  .204890966415E-07 -.283587781923E+01  .100582838059E-06
     .956759537629E+00  .170406250000E+03  .193457223655E+01 -.770674990491E-08
     .339299838226E-09  .100000000000E+01  .227100000000E+04  .000000000000E+00
     .340000000000E+01  .000000000000E+00  .931322574616E-09  .860000000000E+02
     .136800000000E+06  .000000000000E+00
 1 23  7 17 14  0  0.0  .172583386302E-03 -.181898940355E-11  .000000000000E+00
     .940000000000E+02  .447500000000E+02  .426589197724E-08  .163821145253E+01
     .211410224438E-05  .129262873670E-01  .845640897751E-06  .515363875580E+04
     .136800000000E+06 -.355765223503E-06  .139358289257E+01 -.109896063805E-06
     .989874796419E+00  .381625000000E+03  .986361102722E+00 -.820248452355E-08
     .892894335490E-10  .100000000000E+01  .227100000000E+04  .000000000000E+00
     .485000000000E+01  .630000000000E+02  .465661287308E-08  .940000000000E+02
     .136800000000E+06  .000000000000E+00
 6 23  7 17 14  0  0.0  .577048864216E-03 -.363797880709E-11  .000000000000E+00
     .820000000000E+02  .535000000000E+02  .422481883781E-08  .183820958860E+01
     .287592411041E-05  .269301619846E-02  .543892383575E-06  .515370343399E+04
     .136800000000E+06  .316649675369E-07  .138524751744E+01 -.782310962677E-07
     .989071164316E+00  .380031250000E+03 -.759572840446E+00 -.816498296146E-08
     .175007289756E-10  .100000000000E+01  .227100000000E+04  .000000000000E+00
     .340000000000E+01  .000000000000E+00  .372529029846E-08  .820000000000E+02
     .136800000000E+06  .000000000000E+00
24 23  7 17 14  0  0.0 -.260715372860E-03 -.122781784739E-10  .000000000000E+00
     .670000000000E+02  .157812500000E+02  .529236330532E-08  .196207396707E+01
     .664964318276E-06  .140630475944E-01  .560656189919E-05  .515363746262E+04
     .136800000000E+06 -.264495611191E-06 -.185567478677E+01 -.257045030594E-06
     .933515178140E+00  .257500000000E+03  .902005511442E+00 -.832641825731E-08
     .406802659249E-09  .100000000000E+01  .227100000000E+04  .000000000000E+00
     .340000000000E+01  .000000000000E+00  .279396772385E-08  .670000000000E+02
     .136800000000E+06  .000000000000E+00
30 23  7 17 14  0  0.0 -.503609422594E-03  .284217094304E-11  .000000000000E+00
     .800000000000E+01  .105000000000E+02  .529843498680E-08  .903283133391E+00
     .633299350738E-06  .658821675461E-02  .522285699844E-05  .515378240204E+04
     .136800000000E+06 -.152736902237E-06 -.175873632403E+01  .968575477600E-07
     .934998234750E+00  .266156250000E+03 -.254737751641E+01 -.829784563858E-08
     .210365905442E-09  .100000000000E+01  .227100000000E+04  .000000000000E+00
     .340000000000E+01  .000000000000E+00  .372529029846E-08  .800000000000E+01
     .136800000000E+06  .000000000000E+00
12 23  7 17 14  0  0.0 -.401785131544E-03 -.454747350887E-11  .000000000000E+00
     .510000000000E+02 -.337500000000E+01  .444804242168E-08  .285570886899E+00
    -.467523932457E-06  .867938785814E-02  .878237187862E-05  .515357246208E+04
     .136800000000E+06 -.158324837685E-06 -.648878390767E+00 -.186264514923E-08
     .964961649703E+00  .213968750000E+03  .138551957339E+01 -.793818780024E-08
    -.485020203038E-09  .100000000000E+01  .227100000000E+04  .000000000000E+00
     .340000000000E+01  .000000000000E+00 -.125728547573E-07  .510000000000E+02
     .136800000000E+06  .000000000000E+00
18 23  7 17 14  0  0.0 -.348882284015E-03 -.142108547152E-10  .000000000000E+00
     .183000000000E+03  .448437500000E+02  .458197657200E-08  .181770810835E+01
     .248849391937E-05  .346078700386E-02  .704079866409E-06  .515366990280E+04
     .136800000000E+06  .119209289551E-06  .139383531177E+01  .137835741043E-06
     .973772932568E+00  .373156250000E+03  .313026901666E+01 -.837213444729E-08
     .553594488004E-10  .100000000000E+01  .227100000000E+04  .000000000000E+00
     .340000000000E+01  .000000000000E+00 -.838190317154E-08  .439000000000E+03
     .136800000000E+06  .000000000000E+00
26 23  7 17 14  0  0.0  .236182939261E-03 -.113686837722E-11  .000000000000E+00
     .200000000000E+02 -.124062500000E+02  .518664461600E-08 -.618539734400E+00
    -.478699803352E-06  .797327933833E-02  .747665762901E-05  .515371715736E+04
     .136800000000E+06  .145286321640E-06 -.788377151759E+00  .987201929092E-07
     .933339047192E+00  .217906250000E+03  .463304918075E+00 -.828784522202E-08
    -.425732019162E-09  .100000000000E+01  .227100000000E+04  .000000000000E+00
     .340000000000E+01  .000000000000E+00  .698491930962E-08  .200000000000E+02
     .136800000000E+06  .000000000000E+00
16 23  7 17 14  0  0.0 -.479705166072E-03  .443378667114E-11  .000000000000E+00
     .250000000000E+02  .953125000000E+01  .432839458072E-08 -.151495472927E+01
     .458210706711E-06  .132986359531E-01  .841170549393E-05  .515362638664E+04
     .136800000000E+06  .286847352982E-06 -.630669680575E+00 -.670552253723E-07
     .964640961968E+00  .210656250000E+03  .790767300964E+00 -.764281835406E-08
    -.347871633107E-09  .100000000000E+01  .227100000000E+04  .000000000000E+00
     .340000000000E+01  .000000000000E+00 -.102445483208E-07  .250000000000E+02
     .136800000000E+06  .000000000000E+00
11 23  7 17 14  0  0.0 -.279919710010E-03 -.162572177942E-10  .000000000000E+00
     .204000000000E+03  .462500000000E+02  .470412451710E-08 -.303128125584E+01
     .235065817833E-05  .936273718253E-03  .294297933579E-06  .515356558228E+04
     .136800000000E+06 -.931322574616E-07  .142543330361E+01 -.372529029846E-08
     .965323953069E+00  .375187500000E+03 -.285256788879E+01 -.837463455143E-08
     .178578867098E-10  .100000000000E+01  .227100000000E+04  .000000000000E+00
     .340000000000E+01  .000000000000E+00 -.884756445885E-08  .972000000000E+03
     .136800000000E+06  .000000000000E+00
 7 23  7 17 14  0  0.0  .122509431094E-03 -.109139364213E-10  .000000000000E+00
     .470000000000E+02  .968750000000E+01  .504699594193E-08  .977620878177E+00
     .568106770515E-06  .174973334651E-01  .564940273762E-05  .515372535133E+04
     .136800000000E+06 -.258907675743E-06 -.176406733502E+01  .335276126862E-07
     .949868148953E+00  .268968750000E+03 -.218111198926E+01 -.834570477496E-08
     .821462788651E-10  .100000000000E+01  .227100000000E+04  .000000000000E+00
     .340000000000E+01  .000000000000E+00 -.111758708954E-07  .470000000000E+02
     .136800000000E+06  .000000000000E+00
20 23  7 17 14  0  0.0  .422193668783E-03 -.204636307899E-11  .000000000000E+00
     .610000000000E+02 -.118156250000E+03  .473876881731E-08  .249007404825E+01
    -.622682273388E-05  .402951694559E-02  .288151204586E-05  .515358715057E+04
     .136800000000E+06 -.409781932831E-07  .225357367620E+01  .931322574616E-08
     .949295586223E+00  .321562500000E+03 -.287598401095E+01 -.828605943335E-08
    -.392873507616E-09  .100000000000E+01  .227100000000E+04  .000000000000E+00
     .340000000000E+01  .000000000000E+00 -.838190317154E-08  .610000000000E+02
     .136800000000E+06  .000000000000E+00
13 23  7 17 14  0  0.0  .548293814063E-03  .500222085975E-11  .000000000000E+00
     .620000000000E+02 -.386250000000E+02  .389409077594E-08 -.282441849079E+01
    -.190734863281E-05  .720268441364E-02  .100731849670E-04  .515367258072E+04
     .136800000000E+06  .298023223877E-07 -.267487380405E+01 -.745058059692E-08
     .970263620312E+00  .189875000000E+03  .913752535884E+00 -.740137972575E-08
     .498949354672E-09  .100000000000E+01  .227100000000E+04  .000000000000E+00
     .340000000000E+01  .000000000000E+00 -.111758708954E-07  .620000000000E+02
     .136800000000E+06  .000000000000E+00
